{
  "type": "FeatureCollection",
  "features": [
    {
      "type": "Feature",
      "id": "group_a_1",
      "properties": {
        "group": "A",
        "value": 2
      },
      "geometry": {
        "type": "Polygon",
        "coordinates": [
          [
            [4.744, 52.628],
            [4.750, 52.628],
            [4.750, 52.636],
            [4.744, 52.636],
            [4.744, 52.628]
          ]
        ]
      }
    },
    {
      "type": "Feature",
      "id": "group_a_2",
      "properties": {
        "group": "A",
        "value": 3
      },
      "geometry": {
        "type": "Polygon",
        "coordinates": [
          [
            [4.750, 52.628],
            [4.756, 52.628],
            [4.756, 52.636],
            [4.750, 52.636],
            [4.750, 52.628]
          ]
        ]
      }
    }
  ]
}
