{
  "type": "FeatureCollection",
  "features": [
    {
      "type": "Feature",
      "id": "point_1",
      "properties": {
        "name": "Alkmaar elevation point 1",
        "elevation_m": 2.1
      },
      "geometry": {
        "type": "Point",
        "coordinates": [4.741, 52.626, 2.1]
      }
    },
    {
      "type": "Feature",
      "id": "point_2",
      "properties": {
        "name": "Alkmaar elevation point 2",
        "elevation_m": 3.4
      },
      "geometry": {
        "type": "Point",
        "coordinates": [4.752, 52.632, 3.4]
      }
    },
    {
      "type": "Feature",
      "id": "point_3",
      "properties": {
        "name": "Alkmaar elevation point 3",
        "elevation_m": 1.8
      },
      "geometry": {
        "type": "Point",
        "coordinates": [4.764, 52.627, 1.8]
      }
    },
    {
      "type": "Feature",
      "id": "point_4",
      "properties": {
        "name": "Alkmaar elevation point 4",
        "elevation_m": 4.2
      },
      "geometry": {
        "type": "Point",
        "coordinates": [4.747, 52.641, 4.2]
      }
    },
    {
      "type": "Feature",
      "id": "point_5",
      "properties": {
        "name": "Alkmaar elevation point 5",
        "elevation_m": 2.9
      },
      "geometry": {
        "type": "Point",
        "coordinates": [4.760, 52.638, 2.9]
      }
    }
  ]
}
